NORAD_CAT_ID,OBJECT_NAME,OBJECT_TYPE,EPOCH,MEAN_MOTION,ECCENTRICITY,INCLINATION,RA_OF_ASC_NODE,ARG_OF_PERICENTER,MEAN_ANOMALY,BSTAR,MEAN_MOTION_DOT,MEAN_MOTION_DDOT,TLE_LINE0,TLE_LINE1,TLE_LINE2,SEMIMAJOR_AXIS,PERIOD,APOGEE,PERIGEE,DECAYED
52688.0,STARLINK-4032,PAYLOAD,2023-09-01 21:53:10,15.08852871,9.69e-05,53.2155,313.0484,88.8291,271.2813,0.00058088,8.972e-05,0.0,0 STARLINK-4032,1 52688U 22053AJ  23244.91193118  .00008972  00000-0  58088-3 0  9997,2 52688  53.2155 313.0484 0000969  88.8291 271.2813 15.08852871 71899,6917.841,95.437,540.376,539.036,0.0
52688.0,STARLINK-4032,PAYLOAD,2023-09-02 10:36:16,15.08847365,0.0001236,53.2151,310.6673,94.3672,265.7462,0.00037315,5.657e-05,0.0,0 STARLINK-4032,1 52688U 22053AJ  23245.44185402  .00005657  00000-0  37315-3 0  9990,2 52688  53.2151 310.6673 0001236  94.3672 265.7462 15.08847365 71970,6917.858,95.437,540.578,538.868,0.0
52688.0,STARLINK-4032,PAYLOAD,2023-09-02 12:11:39,15.08855801,0.0001397,53.2154,310.37,89.3251,270.7901,0.00055785,8.605e-05,0.0,0 STARLINK-4032,1 52688U 22053AJ  23245.50809191  .00008605  00000-0  55785-3 0  9992,2 52688  53.2154 310.3700 0001397  89.3251 270.7901 15.08855801 72357,6917.832,95.437,540.664,538.731,0.0
52688.0,STARLINK-4032,PAYLOAD,2023-09-02 16:57:48,15.08859877,0.0001204,53.2149,309.4775,100.8345,259.2782,0.0009166,0.00014338,0.0,0 STARLINK-4032,1 52688U 22053AJ  23245.70680926  .00014338  00000-0  91660-3 0  9999,2 52688  53.2149 309.4775 0001204 100.8345 259.2782 15.08859877 72011,6917.82,95.436,540.518,538.852,0.0
52688.0,STARLINK-4032,PAYLOAD,2023-09-03 10:27:02,15.08852351,0.0001483,53.2125,306.2051,90.3975,269.7187,0.00038218,5.802e-05,0.0,0 STARLINK-4032,1 52688U 22053AJ  23246.43544838  .00005802  00000-0  38218-3 0  9997,2 52688  53.2125 306.2051 0001483  90.3975 269.7187 15.08852351 72125,6917.843,95.437,540.734,538.682,0.0
52688.0,STARLINK-4032,PAYLOAD,2023-09-03 21:34:45,15.08834263,0.0001591,53.2144,304.1238,92.6179,267.4995,-0.00013898,-2.499e-05,0.0,0 STARLINK-4032,1 52688U 22053AJ  23246.89913278 -.00002499  00000-0 -13898-3 0  9993,2 52688  53.2144 304.1238 0001591  92.6179 267.4995 15.08834263 72192,6917.898,95.438,540.864,538.662,0.0
52688.0,STARLINK-4032,PAYLOAD,2023-09-05 03:47:05,15.08833758,0.0001455,53.2157,298.4746,93.9602,266.1557,0.00013367,1.84e-05,0.0,0 STARLINK-4032,1 52688U 22053AJ  23248.15770325  .00001840  00000-0  13367-3 0  9996,2 52688  53.2157 298.4746 0001455  93.9602 266.1557 15.08833758 72388,6917.899,95.438,540.771,538.758,0.0
52688.0,STARLINK-4032,PAYLOAD,2023-09-06 03:37:52,15.08844885,0.0001504,53.2154,294.0126,105.3019,254.8139,0.00044263,6.764e-05,0.0,0 STARLINK-4032,1 52688U 22053AJ  23249.15130390  .00006764  00000-0  44263-3 0  9998,2 52688  53.2154 294.0126 0001504 105.3019 254.8139 15.08844885 72905,6917.865,95.437,540.771,538.69,0.0
52688.0,STARLINK-4032,PAYLOAD,2023-09-06 14:45:34,15.08856058,0.0001476,53.2156,291.9325,88.4254,271.6907,0.00049904,7.667e-05,0.0,0 STARLINK-4032,1 52688U 22053AJ  23249.61497912  .00007667  00000-0  49904-3 0  9995,2 52688  53.2156 291.9325 0001476  88.4254 271.6907 15.08856058 72606,6917.831,95.437,540.717,538.675,0.0
52688.0,STARLINK-4032,PAYLOAD,2023-09-07 08:14:48,15.08840189,0.0001579,53.2159,288.66,97.507,262.6101,4.6902e-06,-2.13e-06,0.0,0 STARLINK-4032,1 52688U 22053AJ  23250.34362259 -.00000213  00000-0  46902-5 0  9990,2 52688  53.2159 288.6600 0001579  97.5070 262.6101 15.08840189 72715,6917.88,95.438,540.837,538.652,0.0
52688.0,STARLINK-4032,PAYLOAD,2023-09-07 13:00:58,15.08839438,0.0001503,53.2161,287.769,91.4625,268.654,1.2947e-05,-8.2e-07,0.0,0 STARLINK-4032,1 52688U 22053AJ  23250.54234320 -.00000082  00000-0  12947-4 0  9994,2 52688  53.2161 287.7690 0001503  91.4625 268.6540 15.08839438 73116,6917.882,95.438,540.787,538.707,0.0
52688.0,STARLINK-4032,PAYLOAD,2023-09-08 09:40:58,15.08851872,0.0001556,53.2158,283.9037,81.7519,278.3649,-0.00012833,-2.331e-05,0.0,0 STARLINK-4032,1 52688U 22053AJ  23251.40345734 -.00002331  00000-0 -12833-3 0  9995,2 52688  53.2158 283.9037 0001556  81.7519 278.3649 15.08851872 72873,6917.844,95.437,540.786,538.633,0.0
52688.0,STARLINK-4032,PAYLOAD,2023-09-08 12:51:45,15.08850434,0.0001473,53.2158,283.3088,88.6465,271.4695,-9.0803e-06,-4.33e-06,0.0,0 STARLINK-4032,1 52688U 22053AJ  23251.53593813 -.00000433  00000-0 -90803-5 0  9998,2 52688  53.2158 283.3088 0001473  88.6465 271.4695 15.08850434 73269,6917.848,95.437,540.732,538.694,0.0
52688.0,STARLINK-4032,PAYLOAD,2023-09-08 19:13:18,15.08837748,0.0001214,53.2155,282.12,88.1835,271.9296,0.00015084,2.113e-05,0.0,0 STARLINK-4032,1 52688U 22053AJ  23251.80090508  .00002113  00000-0  15084-3 0  9992,2 52688  53.2155 282.1200 0001214  88.1835 271.9296 15.08837748 73308,6917.887,95.438,540.592,538.912,0.0
52688.0,STARLINK-4032,PAYLOAD,2023-09-09 01:34:50,15.08840318,0.0001504,53.2155,280.9298,85.6712,274.4452,0.00017853,2.554e-05,0.0,0 STARLINK-4032,1 52688U 22053AJ  23252.06586569  .00002554  00000-0  17853-3 0  9993,2 52688  53.2155 280.9298 0001504  85.6712 274.4452 15.08840318 72970,6917.879,95.438,540.785,538.704,0.0
52688.0,STARLINK-4032,PAYLOAD,2023-09-09 11:07:09,15.0884336,0.0001497,53.2153,279.1457,85.4014,274.715,0.00019625,2.837e-05,0.0,0 STARLINK-4032,1 52688U 22053AJ  23252.46330480  .00002837  00000-0  19625-3 0  9999,2 52688  53.2153 279.1457 0001497  85.4014 274.7150 15.08843360 73406,6917.87,95.437,540.771,538.7,0.0
52688.0,STARLINK-4032,PAYLOAD,2023-09-10 07:47:10,15.08842298,0.0001451,53.2143,275.2791,87.5781,272.5377,0.00014163,1.967e-05,0.0,0 STARLINK-4032,1 52688U 22053AJ  23253.32442652  .00001967  00000-0  14163-3 0  9995,2 52688  53.2143 275.2791 0001451  87.5781 272.5377 15.08842298 73166,6917.873,95.437,540.742,538.735,0.0
52688.0,STARLINK-4032,PAYLOAD,2023-09-10 10:57:56,15.08843604,0.0001478,53.2146,274.6852,86.7266,273.3895,0.00018761,2.699e-05,0.0,0 STARLINK-4032,1 52688U 22053AJ  23253.45690654  .00002699  00000-0  18761-3 0  9997,2 52688  53.2146 274.6852 0001478  86.7266 273.3895 15.08843604 73557,6917.869,95.437,540.757,538.712,0.0
52688.0,STARLINK-4032,PAYLOAD,2023-09-11 12:24:06,15.08847528,0.0001523,53.2143,269.9268,86.3359,273.7807,0.00022063,3.226e-05,0.0,0 STARLINK-4032,1 52688U 22053AJ  23254.51674614  .00003226  00000-0  22063-3 0  9990,2 52688  53.2143 269.9268 0001523  86.3359 273.7807 15.08847528 73716,6917.857,95.437,540.776,538.669,0.0
52688.0,STARLINK-4032,PAYLOAD,2023-09-12 01:07:12,15.08843733,0.000158,53.2143,267.5472,88.3434,271.7739,0.00015254,2.141e-05,0.0,0 STARLINK-4032,1 52688U 22053AJ  23255.04666793  .00002141  00000-0  15254-3 0  9997,2 52688  53.2143 267.5472 0001580  88.3434 271.7739 15.08843733 73420,6917.869,95.437,540.827,538.641,0.0
52688.0,STARLINK-4032,PAYLOAD,2023-09-12 12:14:53,15.08849746,0.0001591,53.2155,265.4648,92.5716,267.5458,0.00020803,3.025e-05,0.0,0 STARLINK-4032,1 52688U 22053AJ  23255.51034339  .00003025  00000-0  20803-3 0  9992,2 52688  53.2155 265.4648 0001591  92.5716 267.5458 15.08849746 73866,6917.851,95.437,540.816,538.615,0.0
52688.0,STARLINK-4032,PAYLOAD,2023-09-13 07:19:31,15.08844438,0.0001597,53.2151,261.8968,92.2666,267.8509,7.63e-05,9.27e-06,0.0,0 STARLINK-4032,1 52688U 22053AJ  23256.30522517  .00000927  00000-0  76300-4 0  9992,2 52688  53.2151 261.8968 0001597  92.2666 267.8509 15.08844438 73610,6917.867,95.437,540.837,538.627,0.0
52688.0,STARLINK-4032,PAYLOAD,2023-09-13 12:05:40,15.08849372,0.0001582,53.2153,261.0041,98.3856,261.7316,0.00014347,1.997e-05,0.0,0 STARLINK-4032,1 52688U 22053AJ  23256.50394146  .00001997  00000-0  14347-3 0  9999,2 52688  53.2153 261.0041 0001582  98.3856 261.7316 15.08849372 74014,6917.852,95.437,540.811,538.622,0.0
52688.0,STARLINK-4032,PAYLOAD,2023-09-13 16:51:50,15.08832182,0.0001994,53.2154,260.1123,86.0809,274.0411,-0.00010398,-1.942e-05,0.0,0 STARLINK-4032,1 52688U 22053AJ  23256.70267142 -.00001942  00000-0 -10398-3 0  9990,2 52688  53.2154 260.1123 0001994  86.0809 274.0411 15.08832182 73670,6917.904,95.438,541.149,538.39,0.0
52688.0,STARLINK-4032,PAYLOAD,2023-09-14 11:56:28,15.0883003,0.0001661,53.2152,256.5444,95.726,264.3922,-8.7871e-05,-1.686e-05,0.0,0 STARLINK-4032,1 52688U 22053AJ  23257.49755569 -.00001686  00000-0 -87871-4 0  9998,2 52688  53.2152 256.5444 0001661  95.7260 264.3922 15.08830030 74166,6917.911,95.438,540.925,538.627,0.0
52688.0,STARLINK-4032,PAYLOAD,2023-09-14 16:42:38,15.08835296,0.0001538,53.2151,255.654,92.068,268.0489,-1.4611e-05,-5.2e-06,0.0,0 STARLINK-4032,1 52688U 22053AJ  23257.69627400 -.00000520  00000-0 -14611-4 0  9990,2 52688  53.2151 255.6540 0001538  92.0680 268.0489 15.08835296 74192,6917.895,95.438,540.824,538.696,0.0
52688.0,STARLINK-4032,PAYLOAD,2023-09-15 03:50:19,15.08843938,0.000143,53.2148,253.5724,97.4777,262.6378,0.00013006,1.783e-05,0.0,0 STARLINK-4032,1 52688U 22053AJ  23258.15995178  .00001783  00000-0  13006-3 0  9998,2 52688  53.2148 253.5724 0001430  97.4777 262.6378 15.08843938 73891,6917.868,95.437,540.723,538.744,0.0
52688.0,STARLINK-4032,PAYLOAD,2023-09-15 10:11:52,15.08848721,0.0001542,53.2153,252.3824,100.4298,259.6868,0.00036289,5.493e-05,0.0,0 STARLINK-4032,1 52688U 22053AJ  23258.42491168  .00005493  00000-0  36289-3 0  9998,2 52688  53.2153 252.3824 0001542 100.4298 259.6868 15.08848721 74304,6917.854,95.437,540.785,538.652,0.0
52688.0,STARLINK-4032,PAYLOAD,2023-09-16 08:27:16,15.08853001,0.0001487,53.2146,248.2184,93.5948,266.5214,0.00042178,6.433e-05,0.0,0 STARLINK-4032,1 52688U 22053AJ  23259.35227158  .00006433  00000-0  42178-3 0  9996,2 52688  53.2146 248.2184 0001487  93.5948 266.5214 15.08853001 74074,6917.841,95.437,540.734,538.677,0.0
52688.0,STARLINK-4032,PAYLOAD,2023-09-16 11:38:02,15.08852532,0.0001516,53.2147,247.6232,93.9191,266.1974,0.00046665,7.149e-05,0.0,0 STARLINK-4032,1 52688U 22053AJ  23259.48475068  .00007149  00000-0  46665-3 0  9995,2 52688  53.2147 247.6232 0001516  93.9191 266.1974 15.08852532 74469,6917.842,95.437,540.756,538.658,0.0
